{
    "links": {
        "self": "http://www.neowsapp.com/rest/v1/neo/54055067?api_key=iIulBulltgU6a56xZRHN4H3l9WmuAYTsLGpBGhQ2"
    },
    "id": "54055067",
    "neo_reference_id": "54055067",
    "name": "(2020 TX1)",
    "designation": "2020 TX1",
    "nasa_jpl_url": "http://ssd.jpl.nasa.gov/sbdb.cgi?sstr=54055067",
    "absolute_magnitude_h": 25.985,
    "estimated_diameter": {
        "kilometers": {
            "estimated_diameter_min": 0.0168870962,
            "estimated_diameter_max": 0.037760695
        },
        "meters": {
            "estimated_diameter_min": 16.8870961686,
            "estimated_diameter_max": 37.7606949756
        },
        "miles": {
            "estimated_diameter_min": 0.0104931518,
            "estimated_diameter_max": 0.0234634008
        },
        "feet": {
            "estimated_diameter_min": 55.4038605939,
            "estimated_diameter_max": 123.8867985038
        }
    },
    "is_potentially_hazardous_asteroid": false,
    "close_approach_data": [
        {
            "close_approach_date": "2020-10-22",
            "close_approach_date_full": "2020-Oct-22 18:16",
            "epoch_date_close_approach": 1603390560000,
            "relative_velocity": {
                "kilometers_per_second": "7.9433393867",
                "kilometers_per_hour": "28596.02179222",
                "miles_per_hour": "17768.4558741714"
            },
            "miss_distance": {
                "astronomical": "0.0412413332",
                "lunar": "16.0428786148",
                "kilometers": "6169615.602680284",
                "miles": "3833621.3681205592"
            },
            "orbiting_body": "Earth"
        }
    ],
    "orbital_data": {
        "orbit_id": "4",
        "orbit_determination_date": "2020-10-20 07:19:38",
        "first_observation_date": "2020-10-08",
        "last_observation_date": "2020-10-20",
        "data_arc_in_days": 12,
        "observations_used": 34,
        "orbit_uncertainty": "8",
        "minimum_orbit_intersection": ".0293562",
        "jupiter_tisserand_invariant": "3.302",
        "epoch_osculation": "2459133.5",
        "eccentricity": ".572346140568614",
        "semi_major_axis": "2.368362807431263",
        "inclination": "2.988860905360901",
        "ascending_node_longitude": "201.2658250328725",
        "orbital_period": "1331.284192807587",
        "perihelion_distance": "1.012839495131732",
        "perihelion_argument": "206.7663149651732",
        "aphelion_distance": "3.723886119730794",
        "perihelion_time": "2459159.731324715173",
        "mean_anomaly": "352.9066408596447",
        "mean_motion": ".2704155896576709",
        "equinox": "J2000",
        "orbit_class": {
            "orbit_class_type": "APO",
            "orbit_class_description": "Near-Earth asteroid orbits which cross the Earth’s orbit similar to that of 1862 Apollo",
            "orbit_class_range": "a (semi-major axis) > 1.0 AU; q (perihelion) < 1.017 AU"
        }
    },
    "is_sentry_object": false
}